NORAD_CAT_ID,OBJECT_NAME,OBJECT_TYPE,EPOCH,MEAN_MOTION,ECCENTRICITY,INCLINATION,RA_OF_ASC_NODE,ARG_OF_PERICENTER,MEAN_ANOMALY,BSTAR,MEAN_MOTION_DOT,MEAN_MOTION_DDOT,TLE_LINE0,TLE_LINE1,TLE_LINE2,SEMIMAJOR_AXIS,PERIOD,APOGEE,PERIGEE,DECAYED
53547.0,STARLINK-4474,PAYLOAD,2023-11-15 23:58:12,15.08840089,0.0001653,53.218,256.0839,107.6964,252.4209,1.9455e-05,2.2e-07,0.0,0 STARLINK-4474,1 53547U 22101W   23319.99875552  .00000022  00000-0  19455-4 0  9990,2 53547  53.2180 256.0839 0001653 107.6964 252.4209 15.08840089 68782,6917.88,95.438,540.889,538.602,0.0
53547.0,STARLINK-4474,PAYLOAD,2023-11-16 06:19:45,15.0883769,0.000161,53.2179,254.8942,104.7345,255.3825,-1.5842e-05,-5.4e-06,0.0,0 STARLINK-4474,1 53547U 22101W   23320.26371637 -.00000540  00000-0 -15842-4 0  9990,2 53547  53.2179 254.8942 0001610 104.7345 255.3825 15.08837690 69494,6917.887,95.438,540.866,538.639,0.0
53547.0,STARLINK-4474,PAYLOAD,2023-11-17 04:35:08,15.0885587,0.0001532,53.2187,250.7321,113.2769,246.8384,-0.00016273,-2.878e-05,0.0,0 STARLINK-4474,1 53547U 22101W   23321.19107356 -.00002878  00000-0 -16273-3 0  9992,2 53547  53.2187 250.7321 0001532 113.2769 246.8384 15.08855870 68963,6917.832,95.437,540.757,538.637,0.0
53547.0,STARLINK-4474,PAYLOAD,2023-11-18 02:50:33,15.08834445,0.000167,53.2194,246.5673,84.1712,275.9471,0.00019509,2.818e-05,0.0,0 STARLINK-4474,1 53547U 22101W   23322.11844287  .00002818  00000-0  19509-3 0  9993,2 53547  53.2194 246.5673 0001670  84.1712 275.9471 15.08834445 69103,6917.897,95.438,540.918,538.607,0.0
53547.0,STARLINK-4474,PAYLOAD,2023-11-18 12:22:52,15.08829283,0.0001638,53.2191,244.7862,80.3992,279.7186,0.00028146,4.193e-05,0.0,0 STARLINK-4474,1 53547U 22101W   23322.51588570  .00004193  00000-0  28146-3 0  9992,2 53547  53.2191 244.7862 0001638  80.3992 279.7186 15.08829283 69831,6917.913,95.438,540.911,538.645,0.0
53547.0,STARLINK-4474,PAYLOAD,2023-11-18 18:44:25,15.08825268,0.0001624,53.2187,243.598,81.5008,278.6168,0.00036917,5.59e-05,0.0,0 STARLINK-4474,1 53547U 22101W   23322.78084902  .00005590  00000-0  36917-3 0  9998,2 53547  53.2187 243.5980 0001624  81.5008 278.6168 15.08825268 69208,6917.925,95.438,540.914,538.667,0.0
53547.0,STARLINK-4474,PAYLOAD,2023-11-19 01:05:57,15.08843593,0.0001494,53.2177,242.4057,91.2223,268.8941,6.9855e-05,8.24e-06,0.0,0 STARLINK-4474,1 53547U 22101W   23323.04579887  .00000824  00000-0  69855-4 0  9992,2 53547  53.2177 242.4057 0001494  91.2223 268.8941 15.08843593 69247,6917.869,95.437,540.768,538.701,0.0
53547.0,STARLINK-4474,PAYLOAD,2023-11-19 12:13:38,15.08845567,0.000148,53.2178,240.3247,89.619,270.4972,0.00011753,1.583e-05,0.0,0 STARLINK-4474,1 53547U 22101W   23323.50947605  .00001583  00000-0  11753-3 0  9996,2 53547  53.2178 240.3247 0001480  89.6190 270.4972 15.08845567 69982,6917.863,95.437,540.752,538.705,0.0
53547.0,STARLINK-4474,PAYLOAD,2023-11-20 04:07:29,15.08852505,0.0001556,53.2179,237.3505,90.2583,269.8588,0.00013483,1.859e-05,0.0,0 STARLINK-4474,1 53547U 22101W   23324.17186896  .00001859  00000-0  13483-3 0  9995,2 53547  53.2179 237.3505 0001556  90.2583 269.8588 15.08852505 69417,6917.842,95.437,540.784,538.631,0.0
53547.0,STARLINK-4474,PAYLOAD,2023-11-20 21:36:44,15.08840454,0.0001632,53.2172,234.0793,100.7363,259.3812,4.5278e-05,4.33e-06,0.0,0 STARLINK-4474,1 53547U 22101W   23324.90051748  .00000433  00000-0  45278-4 0  9998,2 53547  53.2172 234.0793 0001632 100.7363 259.3812 15.08840454 70192,6917.879,95.438,540.873,538.615,0.0
53547.0,STARLINK-4474,PAYLOAD,2023-11-21 00:47:30,15.08842525,0.0001501,53.2178,233.4855,87.4501,272.6663,7.1181e-05,8.45e-06,0.0,0 STARLINK-4474,1 53547U 22101W   23325.03299625  .00000845  00000-0  71181-4 0  9990,2 53547  53.2178 233.4855 0001501  87.4501 272.6663 15.08842525 69540,6917.873,95.437,540.776,538.699,0.0
53547.0,STARLINK-4474,PAYLOAD,2023-11-21 03:58:16,15.08845831,0.0001546,53.2179,232.8902,90.2856,269.8313,8.3492e-05,1.041e-05,0.0,0 STARLINK-4474,1 53547U 22101W   23325.16547445  .00001041  00000-0  83492-4 0  9997,2 53547  53.2179 232.8902 0001546  90.2856 269.8313 15.08845831 70232,6917.863,95.437,540.797,538.658,0.0
53547.0,STARLINK-4474,PAYLOAD,2023-11-21 21:27:31,15.08843237,0.0001579,53.2181,229.6183,92.0901,268.0272,2.2496e-05,7e-07,0.0,0 STARLINK-4474,1 53547U 22101W   23325.89411743  .00000070  00000-0  22496-4 0  9996,2 53547  53.2181 229.6183 0001579  92.0901 268.0272 15.08843237 70342,6917.87,95.437,540.828,538.643,0.0
53547.0,STARLINK-4474,PAYLOAD,2023-11-22 00:38:17,15.08846162,0.0001716,53.2175,229.0241,93.5905,266.5284,3.2419e-05,2.28e-06,0.0,0 STARLINK-4474,1 53547U 22101W   23326.02659284  .00000228  00000-0  32419-4 0  9997,2 53547  53.2175 229.0241 0001716  93.5905 266.5284 15.08846162 70365,6917.862,95.437,540.914,538.539,0.0
53547.0,STARLINK-4474,PAYLOAD,2023-11-22 21:18:18,15.08847024,0.0001699,53.2176,225.1597,104.3106,255.8075,0.00011171,1.491e-05,0.0,0 STARLINK-4474,1 53547U 22101W   23326.88771152  .00001491  00000-0  11171-3 0  9994,2 53547  53.2176 225.1597 0001699 104.3106 255.8075 15.08847024 70492,6917.859,95.437,540.899,538.549,0.0
53547.0,STARLINK-4474,PAYLOAD,2023-11-22 22:53:41,15.08848191,0.0001724,53.2178,224.8626,104.5476,255.5708,0.00012371,1.682e-05,0.0,0 STARLINK-4474,1 53547U 22101W   23326.95395056  .00001682  00000-0  12371-3 0  9992,2 53547  53.2178 224.8626 0001724 104.5476 255.5708 15.08848191 69836,6917.855,95.437,540.913,538.528,0.0
53547.0,STARLINK-4474,PAYLOAD,2023-11-23 16:22:56,15.08834198,0.0001793,53.2182,221.5904,101.6636,258.4558,-1.1162e-05,-4.66e-06,0.0,0 STARLINK-4474,1 53547U 22101W   23327.68259847 -.00000466  00000-0 -11162-4 0  9999,2 53547  53.2182 221.5904 0001793 101.6636 258.4558 15.08834198 69945,6917.898,95.438,541.004,538.523,0.0
53547.0,STARLINK-4474,PAYLOAD,2023-11-23 21:09:06,15.08831111,0.0001765,53.2173,220.6929,110.2823,249.8359,-0.00011818,-2.168e-05,0.0,0 STARLINK-4474,1 53547U 22101W   23327.88132119 -.00002168  00000-0 -11818-3 0  9991,2 53547  53.2173 220.6929 0001765 110.2823 249.8359 15.08831111 70649,6917.908,95.438,540.994,538.552,0.0
53547.0,STARLINK-4474,PAYLOAD,2023-11-24 01:55:16,15.08823769,0.000157,53.2175,219.8037,91.6535,268.4637,-0.00022552,-3.874e-05,0.0,0 STARLINK-4474,1 53547U 22101W   23328.08004710 -.00003874  00000-0 -22552-3 0  9991,2 53547  53.2175 219.8037 0001570  91.6535 268.4637 15.08823769 70003,6917.93,95.439,540.881,538.709,0.0
53547.0,STARLINK-4474,PAYLOAD,2023-11-24 22:35:17,15.08828602,0.0001615,53.2182,215.9383,81.0112,279.1063,0.00017135,2.439e-05,0.0,0 STARLINK-4474,1 53547U 22101W   23328.94117153  .00002439  00000-0  17135-3 0  9997,2 53547  53.2182 215.9383 0001615  81.0112 279.1063 15.08828602 70807,6917.915,95.438,540.897,538.663,0.0
53547.0,STARLINK-4474,PAYLOAD,2023-11-25 01:46:04,15.08798079,0.0001841,53.2182,215.3439,91.3388,268.7815,0.0007371,0.00011449,0.0,0 STARLINK-4474,1 53547U 22101W   23329.07365922  .00011449  00000-0  73710-3 0  9993,2 53547  53.2182 215.3439 0001841  91.3388 268.7815 15.08798079 70828,6918.009,95.44,541.147,538.6,0.0
53547.0,STARLINK-4474,PAYLOAD,2023-11-25 22:26:03,15.08857349,0.0001406,53.2158,211.4845,75.3052,284.8096,0.00068154,0.0001058,0.0,0 STARLINK-4474,1 53547U 22101W   23329.93476399  .00010580  00000-0  68154-3 0  9990,2 53547  53.2158 211.4845 0001406  75.3052 284.8096 15.08857349 70956,6917.827,95.436,540.665,538.72,0.0
53547.0,STARLINK-4474,PAYLOAD,2023-11-26 00:01:26,15.08875287,0.0001523,53.217,211.1823,88.6769,271.4398,0.00094514,0.000148,0.0,0 STARLINK-4474,1 53547U 22101W   23330.00099775  .00014800  00000-0  94514-3 0  9997,2 53547  53.2170 211.1823 0001523  88.6769 271.4398 15.08875287 70290,6917.773,95.435,540.691,538.584,0.0
53547.0,STARLINK-4474,PAYLOAD,2023-11-26 22:16:50,15.0884041,0.0001449,53.2156,207.0197,107.2719,252.8432,-9.5766e-05,-1.812e-05,0.0,0 STARLINK-4474,1 53547U 22101W   23330.92836394 -.00001812  00000-0 -95766-4 0  9996,2 53547  53.2156 207.0197 0001449 107.2719 252.8432 15.08840410 71105,6917.879,95.438,540.747,538.742,0.0
53547.0,STARLINK-4474,PAYLOAD,2023-11-27 01:27:36,15.08838539,0.0001453,53.2155,206.4253,106.6145,253.5007,-0.00011321,-2.089e-05,0.0,0 STARLINK-4474,1 53547U 22101W   23331.06084464 -.00002089  00000-0 -11321-3 0  9996,2 53547  53.2155 206.4253 0001453 106.6145 253.5007 15.08838539 70453,6917.885,95.438,540.755,538.745,0.0
53547.0,STARLINK-4474,PAYLOAD,2023-11-27 22:07:38,15.08841546,0.0001549,53.217,202.5584,82.9555,277.1613,8.7461e-05,1.104e-05,0.0,0 STARLINK-4474,1 53547U 22101W   23331.92196829  .00001104  00000-0  87461-4 0  9994,2 53547  53.2170 202.5584 0001549  82.9555 277.1613 15.08841546 71257,6917.876,95.437,540.812,538.669,0.0
53547.0,STARLINK-4474,PAYLOAD,2023-11-28 01:18:24,15.08844736,0.0001537,53.2165,201.9629,88.3747,271.7421,0.00013073,1.793e-05,0.0,0 STARLINK-4474,1 53547U 22101W   23332.05444651  .00001793  00000-0  13073-3 0  9999,2 53547  53.2165 201.9629 0001537  88.3747 271.7421 15.08844736 71277,6917.866,95.437,540.794,538.668,0.0
53547.0,STARLINK-4474,PAYLOAD,2023-11-28 20:23:02,15.08843329,0.0001615,53.217,198.3934,85.9203,274.1974,0.00021476,3.132e-05,0.0,0 STARLINK-4474,1 53547U 22101W   23332.84932915  .00003132  00000-0  21476-3 0  9996,2 53547  53.2170 198.3934 0001615  85.9203 274.1974 15.08843329 70724,6917.87,95.437,540.852,538.618,0.0
53547.0,STARLINK-4474,PAYLOAD,2023-11-28 21:58:25,15.08844446,0.0001597,53.217,198.0961,83.123,276.9944,0.00024803,3.662e-05,0.0,0 STARLINK-4474,1 53547U 22101W   23332.91556883  .00003662  00000-0  24803-3 0  9995,2 53547  53.2170 198.0961 0001597  83.1230 276.9944 15.08844446 71404,6917.867,95.437,540.837,538.627,0.0
53547.0,STARLINK-4474,PAYLOAD,2023-11-29 21:49:12,15.0884375,0.0001558,53.2168,193.6352,87.3035,272.8136,0.00010846,1.439e-05,0.0,0 STARLINK-4474,1 53547U 22101W   23333.90916751  .00001439  00000-0  10846-3 0  9991,2 53547  53.2168 193.6352 0001558  87.3035 272.8136 15.08843750 70888,6917.869,95.437,540.812,538.656,0.0
